{"type": "FeatureCollection", "features": [ {"type": "Feature", "properties": {"norad_id": 41469, "name": "IRNSS-1G", "group": "gnss", "lat": 4.658970994855887, "lon": -178.8398154133625, "alt_km": 35787.102846946, "timestamp": "2025-12-17T21:39:45.933337+00:00", "meta": {"OBJECT_NAME": "IRNSS-1G", "OBJECT_ID": "2016-027A", "EPOCH": "2025-12-17T13:56:34.001376", "MEAN_MOTION": 1.00277838, "ECCENTRICITY": 0.00025936, "INCLINATION": 4.7459, "RA_OF_ASC_NODE": 101.9722, "ARG_OF_PERICENTER": 331.7814, "MEAN_ANOMALY": 351.2931, "EPHEMERIS_TYPE": 0, "CLASSIFICATION_TYPE": "U", "NORAD_CAT_ID": 41469, "ELEMENT_SET_NO": 999, "REV_AT_EPOCH": 3535, "BSTAR": 0, "MEAN_MOTION_DOT": -3.12e-06, "MEAN_MOTION_DDOT": 0}, "tle": {"line1": "1 41469U 16027A   25351.58094909 -.00000312  00000+0  00000+0 0  9995", "line2": "2 41469   4.7459 101.9722 0002593 331.7814 351.2931  1.00277838 35359"}}, "geometry": {"type": "Point", "coordinates": [-178.8398154133625, 4.658970994855887]}}, {"type": "Feature", "properties": {"norad_id": 41549, "name": "GSAT0211 (GALILEO 14)", "group": "gnss", "lat": -32.79018540863024, "lon": 73.33822532797498, "alt_km": 23237.355003695495, "timestamp": "2025-12-17T21:39:45.933347+00:00", "meta": {"OBJECT_NAME": "GSAT0211 (GALILEO 14)", "OBJECT_ID": "2016-030A", "EPOCH": "2025-12-14T00:32:28.498848", "MEAN_MOTION": 1.70473201, "ECCENTRICITY": 0.000407, "INCLINATION": 55.1518, "RA_OF_ASC_NODE": 226.7881, "ARG_OF_PERICENTER": 16.5595, "MEAN_ANOMALY": 343.5367, "EPHEMERIS_TYPE": 0, "CLASSIFICATION_TYPE": "U", "NORAD_CAT_ID": 41549, "ELEMENT_SET_NO": 999, "REV_AT_EPOCH": 5951, "BSTAR": 0, "MEAN_MOTION_DOT": 2.8e-07, "MEAN_MOTION_DDOT": 0}, "tle": {"line1": "1 41549U 16030A   25348.02255207  .00000028  00000+0  00000+0 0  9996", "line2": "2 41549  55.1518 226.7881 0004070  16.5595 343.5367  1.70473201 59512"}}, "geometry": {"type": "Point", "coordinates": [73.33822532797498, -32.79018540863024]}}, {"type": "Feature", "properties": {"norad_id": 41550, "name": "GSAT0210 (GALILEO 13)", "group": "gnss", "lat": 47.15107213881709, "lon": -84.67443370915234, "alt_km": 23219.298377616033, "timestamp": "2025-12-17T21:39:45.933357+00:00", "meta": {"OBJECT_NAME": "GSAT0210 (GALILEO 13)", "OBJECT_ID": "2016-030B", "EPOCH": "2025-12-17T05:06:34.590240", "MEAN_MOTION": 1.70473746, "ECCENTRICITY": 9.221e-05, "INCLINATION": 55.1502, "RA_OF_ASC_NODE": 226.6984, "ARG_OF_PERICENTER": 234.8094, "MEAN_ANOMALY": 125.2822, "EPHEMERIS_TYPE": 0, "CLASSIFICATION_TYPE": "U", "NORAD_CAT_ID": 41550, "ELEMENT_SET_NO": 999, "REV_AT_EPOCH": 5956, "BSTAR": 0, "MEAN_MOTION_DOT": 5.5e-07, "MEAN_MOTION_DDOT": 0}, "tle": {"line1": "1 41550U 16030B   25351.21290035  .00000055  00000+0  00000+0 0  9991", "line2": "2 41550  55.1502 226.6984 0000922 234.8094 125.2822  1.70473746 59561"}}, "geometry": {"type": "Point", "coordinates": [-84.67443370915234, 47.15107213881709]}}, {"type": "Feature", "properties": {"norad_id": 41586, "name": "BEIDOU-2 G7 (C03)", "group": "gnss", "lat": 1.7662582578056758, "lon": 162.21617907699803, "alt_km": 35785.85046168118, "timestamp": "2025-12-17T21:39:45.933369+00:00", "meta": {"OBJECT_NAME": "BEIDOU-2 G7 (C03)", "OBJECT_ID": "2016-037A", "EPOCH": "2025-12-17T16:37:31.193760", "MEAN_MOTION": 1.00272963, "ECCENTRICITY": 0.00050828, "INCLINATION": 1.7689, "RA_OF_ASC_NODE": 67.8238, "ARG_OF_PERICENTER": 3.4617, "MEAN_ANOMALY": 15.1098, "EPHEMERIS_TYPE": 0, "CLASSIFICATION_TYPE": "U", "NORAD_CAT_ID": 41586, "ELEMENT_SET_NO": 999, "REV_AT_EPOCH": 507, "BSTAR": 0, "MEAN_MOTION_DOT": -3.3e-06, "MEAN_MOTION_DDOT": 0}, "tle": {"line1": "1 41586U 16037A   25351.69272215 -.00000330  00000+0  00000+0 0  9996", "line2": "2 41586   1.7689  67.8238 0005082   3.4617  15.1098  1.00272963  5073"}}, "geometry": {"type": "Point", "coordinates": [162.21617907699803, 1.7662582578056758]}}, {"type": "Feature", "properties": {"norad_id": 41589, "name": "EUTELSAT 117 WEST B (WAAS/PRN 131)", "group": "gnss", "lat": 0.009720936807879737, "lon": -65.28714448836405, "alt_km": 35784.92259651745, "timestamp": "2025-12-17T21:39:45.933380+00:00", "meta": {"OBJECT_NAME": "EUTELSAT 117 WEST B (WAAS/PRN 131)", "OBJECT_ID": "2016-038B", "EPOCH": "2025-12-17T11:09:38.705184", "MEAN_MOTION": 1.00272667, "ECCENTRICITY": 2.539e-05, "INCLINATION": 0.0126, "RA_OF_ASC_NODE": 156.3845, "ARG_OF_PERICENTER": 104.8947, "MEAN_ANOMALY": 235.4811, "EPHEMERIS_TYPE": 0, "CLASSIFICATION_TYPE": "U", "NORAD_CAT_ID": 41589, "ELEMENT_SET_NO": 999, "REV_AT_EPOCH": 3484, "BSTAR": 0, "MEAN_MOTION_DOT": 1.3e-07, "MEAN_MOTION_DDOT": 0}, "tle": {"line1": "1 41589U 16038B   25351.46503131  .00000013  00000+0  00000+0 0  9996", "line2": "2 41589   0.0126 156.3845 0000253 104.8947 235.4811  1.00272667 34847"}}, "geometry": {"type": "Point", "coordinates": [-65.28714448836405, 0.009720936807879737]}}, {"type": "Feature", "properties": {"norad_id": 41859, "name": "GSAT0207 (GALILEO 15)", "group": "gnss", "lat": -51.74032124274843, "lon": -12.87929606124157, "alt_km": 23225.49077312023, "timestamp": "2025-12-17T21:39:45.933391+00:00", "meta": {"OBJECT_NAME": "GSAT0207 (GALILEO 15)", "OBJECT_ID": "2016-069A", "EPOCH": "2025-12-13T09:14:27.730752", "MEAN_MOTION": 1.70474447, "ECCENTRICITY": 0.00022423, "INCLINATION": 55.3826, "RA_OF_ASC_NODE": 106.2323, "ARG_OF_PERICENTER": 321.9482, "MEAN_ANOMALY": 38.0041, "EPHEMERIS_TYPE": 0, "CLASSIFICATION_TYPE": "U", "NORAD_CAT_ID": 41859, "ELEMENT_SET_NO": 999, "REV_AT_EPOCH": 5623, "BSTAR": 0, "MEAN_MOTION_DOT": 0, "MEAN_MOTION_DDOT": 0}, "tle": {"line1": "1 41859U 16069A   25347.38504318  .00000000  00000+0  00000+0 0  9990", "line2": "2 41859  55.3826 106.2323 0002242 321.9482  38.0041  1.70474447 56234"}}, "geometry": {"type": "Point", "coordinates": [-12.87929606124157, -51.74032124274843]}}, {"type": "Feature", "properties": {"norad_id": 41860, "name": "GSAT0212 (GALILEO 16)", "group": "gnss", "lat": -14.440024976786654, "lon": 95.8573810745612, "alt_km": 23219.51012585031, "timestamp": "2025-12-17T21:39:45.933401+00:00", "meta": {"OBJECT_NAME": "GSAT0212 (GALILEO 16)", "OBJECT_ID": "2016-069B", "EPOCH": "2025-12-17T08:16:27.265728", "MEAN_MOTION": 1.70474701, "ECCENTRICITY": 0.00020752, "INCLINATION": 55.3825, "RA_OF_ASC_NODE": 106.1181, "ARG_OF_PERICENTER": 22.8873, "MEAN_ANOMALY": 337.0809, "EPHEMERIS_TYPE": 0, "CLASSIFICATION_TYPE": "U", "NORAD_CAT_ID": 41860, "ELEMENT_SET_NO": 999, "REV_AT_EPOCH": 5655, "BSTAR": 0, "MEAN_MOTION_DOT": -9e-08, "MEAN_MOTION_DDOT": 0}, "tle": {"line1": "1 41860U 16069B   25351.34476002 -.00000009  00000+0  00000+0 0  9991", "line2": "2 41860  55.3825 106.1181 0002075  22.8873 337.0809  1.70474701 56553"}}, "geometry": {"type": "Point", "coordinates": [95.8573810745612, -14.440024976786654]}}, {"type": "Feature", "properties": {"norad_id": 41861, "name": "GSAT0213 (GALILEO 17)", "group": "gnss", "lat": 47.286368937799296, "lon": -122.2569036820252, "alt_km": 23223.728198618082, "timestamp": "2025-12-17T21:39:45.933413+00:00", "meta": {"OBJECT_NAME": "GSAT0213 (GALILEO 17)", "OBJECT_ID": "2016-069C", "EPOCH": "2025-12-16T12:56:22.787232", "MEAN_MOTION": 1.70474953, "ECCENTRICITY": 0.00025393, "INCLINATION": 55.3843, "RA_OF_ASC_NODE": 106.1481, "ARG_OF_PERICENTER": 282.5474, "MEAN_ANOMALY": 77.384, "EPHEMERIS_TYPE": 0, "CLASSIFICATION_TYPE": "U", "NORAD_CAT_ID": 41861, "ELEMENT_SET_NO": 999, "REV_AT_EPOCH": 5640, "BSTAR": 0, "MEAN_MOTION_DOT": -9e-08, "MEAN_MOTION_DDOT": 0}, "tle": {"line1": "1 41861U 16069C   25350.53915263 -.00000009  00000+0  00000+0 0  9999", "line2": "2 41861  55.3843 106.1481 0002539 282.5474  77.3840  1.70474953 56406"}}, "geometry": {"type": "Point", "coordinates": [-122.2569036820252, 47.286368937799296]}}, {"type": "Feature", "properties": {"norad_id": 41862, "name": "GSAT0214 (GALILEO 18)", "group": "gnss", "lat": 22.092337792035828, "lon": 122.3548944884126, "alt_km": 23219.929782603, "timestamp": "2025-12-17T21:39:45.933422+00:00", "meta": {"OBJECT_NAME": "GSAT0214 (GALILEO 18)", "OBJECT_ID": "2016-069D", "EPOCH": "2025-12-14T22:12:36.299232", "MEAN_MOTION": 1.70474813, "ECCENTRICITY": 0.00014239, "INCLINATION": 55.3815, "RA_OF_ASC_NODE": 106.1855, "ARG_OF_PERICENTER": 290.4821, "MEAN_ANOMALY": 69.4663, "EPHEMERIS_TYPE": 0, "CLASSIFICATION_TYPE": "U", "NORAD_CAT_ID": 41862, "ELEMENT_SET_NO": 999, "REV_AT_EPOCH": 5650, "BSTAR": 0, "MEAN_MOTION_DOT": -6e-08, "MEAN_MOTION_DDOT": 0}, "tle": {"line1": "1 41862U 16069D   25348.92542013 -.00000006  00000+0  00000+0 0  9996", "line2": "2 41862  55.3815 106.1855 0001423 290.4821  69.4663  1.70474813 56507"}}, "geometry": {"type": "Point", "coordinates": [122.3548944884126, 22.092337792035828]}}, {"type": "Feature", "properties": {"norad_id": 42709, "name": "SES-15 (WAAS/PRN 133)", "group": "gnss", "lat": -0.03959122442898224, "lon": -77.47422453534597, "alt_km": 35786.52034341915, "timestamp": "2025-12-17T21:39:45.933432+00:00", "meta": {"OBJECT_NAME": "SES-15 (WAAS/PRN 133)", "OBJECT_ID": "2017-026A", "EPOCH": "2025-12-17T12:42:41.075712", "MEAN_MOTION": 1.00268576, "ECCENTRICITY": 1.686e-05, "INCLINATION": 0.0187, "RA_OF_ASC_NODE": 344.2644, "ARG_OF_PERICENTER": 349.9691, "MEAN_ANOMALY": 173.6722, "EPHEMERIS_TYPE": 0, "CLASSIFICATION_TYPE": "U", "NORAD_CAT_ID": 42709, "ELEMENT_SET_NO": 999, "REV_AT_EPOCH": 561, "BSTAR": 0, "MEAN_MOTION_DOT": 8.5e-07, "MEAN_MOTION_DDOT": 0}, "tle": {"line1": "1 42709U 17026A   25351.52964208  .00000085  00000+0  00000+0 0  9991", "line2": "2 42709   0.0187 344.2644 0000168 349.9691 173.6722  1.00268576  5618"}}, "geometry": {"type": "Point", "coordinates": [-77.47422453534597, -0.03959122442898224]}}]}